{
  "type": "FeatureCollection",
  "features": [
    {
      "type": "Feature",
      "properties": {
        "norad_id": 34079,
        "name": "IRIDIUM 33 DEB",
        "group": "iridium-33-debris",
        "lat": 83.61115992635118,
        "lon": 155.16980720740347,
        "alt_km": 610.4109680828224,
        "timestamp": "2025-12-10T14:53:37.473238+00:00",
        "meta_object_name": "IRIDIUM 33 DEB",
        "meta_object_id": "1997-051CN",
        "meta_epoch": "2025-12-10T01:46:30.105984",
        "meta_mean_motion": 14.83410874,
        "meta_eccentricity": 0.0005944,
        "meta_inclination": 86.3776,
        "meta_ra_of_asc_node": 9.8742,
        "meta_arg_of_pericenter": 16.6843,
        "meta_mean_anomaly": 41.3467,
        "meta_ephemeris_type": 0,
        "meta_classification_type": "U",
        "meta_norad_cat_id": 34079,
        "meta_element_set_no": 999,
        "meta_rev_at_epoch": 88938,
        "meta_bstar": 0.0021846749,
        "meta_mean_motion_dot": 0.00017982,
        "meta_mean_motion_ddot": 0,
        "tle_line1": "1 34079U 97051CN  25344.07395956  .00017982  00000+0  21847-2 0  9997",
        "tle_line2": "2 34079  86.3776   9.8742 0005944  16.6843  41.3467 14.83410874889383"
      },
      "geometry": {
        "type": "Point",
        "coordinates": [
          155.16980720740347,
          83.61115992635118
        ]
      }
    },
    {
      "type": "Feature",
      "properties": {
        "norad_id": 34088,
        "name": "IRIDIUM 33 DEB",
        "group": "iridium-33-debris",
        "lat": 52.92925623444289,
        "lon": -153.10331359659335,
        "alt_km": 587.2498384540904,
        "timestamp": "2025-12-10T14:53:37.473247+00:00",
        "meta_object_name": "IRIDIUM 33 DEB",
        "meta_object_id": "1997-051CX",
        "meta_epoch": "2025-12-10T03:18:56.012256",
        "meta_mean_motion": 14.91176406,
        "meta_eccentricity": 0.00054818,
        "meta_inclination": 86.3845,
        "meta_ra_of_asc_node": 31.9191,
        "meta_arg_of_pericenter": 185.8656,
        "meta_mean_anomaly": 232.9656,
        "meta_ephemeris_type": 0,
        "meta_classification_type": "U",
        "meta_norad_cat_id": 34088,
        "meta_element_set_no": 999,
        "meta_rev_at_epoch": 88703,
        "meta_bstar": 0.0035919602,
        "meta_mean_motion_dot": 0.0003583,
        "meta_mean_motion_ddot": 0,
        "tle_line1": "1 34088U 97051CX  25344.13814829  .00035830  00000+0  35920-2 0  9998",
        "tle_line2": "2 34088  86.3845  31.9191 0005481 185.8656 232.9656 14.91176406887038"
      },
      "geometry": {
        "type": "Point",
        "coordinates": [
          -153.10331359659335,
          52.92925623444289
        ]
      }
    },
    {
      "type": "Feature",
      "properties": {
        "norad_id": 34091,
        "name": "IRIDIUM 33 DEB",
        "group": "iridium-33-debris",
        "lat": 25.77964110639217,
        "lon": 69.57486382584608,
        "alt_km": 621.6086649538111,
        "timestamp": "2025-12-10T14:53:37.473256+00:00",
        "meta_object_name": "IRIDIUM 33 DEB",
        "meta_object_id": "1997-051DA",
        "meta_epoch": "2025-12-10T05:03:05.693184",
        "meta_mean_motion": 14.81495206,
        "meta_eccentricity": 0.00333598,
        "meta_inclination": 86.3408,
        "meta_ra_of_asc_node": 67.9914,
        "meta_arg_of_pericenter": 302.3952,
        "meta_mean_anomaly": 57.4043,
        "meta_ephemeris_type": 0,
        "meta_classification_type": "U",
        "meta_norad_cat_id": 34091,
        "meta_element_set_no": 999,
        "meta_rev_at_epoch": 87829,
        "meta_bstar": 0.0076077061,
        "meta_mean_motion_dot": 0.00060664,
        "meta_mean_motion_ddot": 0,
        "tle_line1": "1 34091U 97051DA  25344.21048256  .00060664  00000+0  76077-2 0  9995",
        "tle_line2": "2 34091  86.3408  67.9914 0033359 302.3952  57.4043 14.81495206878298"
      },
      "geometry": {
        "type": "Point",
        "coordinates": [
          69.57486382584608,
          25.77964110639217
        ]
      }
    },
    {
      "type": "Feature",
      "properties": {
        "norad_id": 34097,
        "name": "IRIDIUM 33 DEB",
        "group": "iridium-33-debris",
        "lat": -86.16863804755125,
        "lon": -80.56663634278148,
        "alt_km": 791.7751383225459,
        "timestamp": "2025-12-10T14:53:37.473266+00:00",
        "meta_object_name": "IRIDIUM 33 DEB",
        "meta_object_id": "1997-051DG",
        "meta_epoch": "2025-12-10T01:54:58.988160",
        "meta_mean_motion": 14.34741967,
        "meta_eccentricity": 0.00828777,
        "meta_inclination": 86.2003,
        "meta_ra_of_asc_node": 2.5814,
        "meta_arg_of_pericenter": 10.8619,
        "meta_mean_anomaly": 349.4341,
        "meta_ephemeris_type": 0,
        "meta_classification_type": "U",
        "meta_norad_cat_id": 34097,
        "meta_element_set_no": 999,
        "meta_rev_at_epoch": 87081,
        "meta_bstar": 0.001899655,
        "meta_mean_motion_dot": 5.613e-05,
        "meta_mean_motion_ddot": 0,
        "tle_line1": "1 34097U 97051DG  25344.07984940  .00005613  00000+0  18997-2 0  9994",
        "tle_line2": "2 34097  86.2003   2.5814 0082877  10.8619 349.4341 14.34741967870819"
      },
      "geometry": {
        "type": "Point",
        "coordinates": [
          -80.56663634278148,
          -86.16863804755125
        ]
      }
    },
    {
      "type": "Feature",
      "properties": {
        "norad_id": 34145,
        "name": "IRIDIUM 33 DEB",
        "group": "iridium-33-debris",
        "lat": 56.050287067040685,
        "lon": 147.82312597949996,
        "alt_km": 709.258342427639,
        "timestamp": "2025-12-10T14:53:37.473275+00:00",
        "meta_object_name": "IRIDIUM 33 DEB",
        "meta_object_id": "1997-051DY",
        "meta_epoch": "2025-12-10T04:20:07.855008",
        "meta_mean_motion": 14.42258512,
        "meta_eccentricity": 0.00556582,
        "meta_inclination": 86.2123,
        "meta_ra_of_asc_node": 333.6661,
        "meta_arg_of_pericenter": 101.9259,
        "meta_mean_anomaly": 258.8189,
        "meta_ephemeris_type": 0,
        "meta_classification_type": "U",
        "meta_norad_cat_id": 34145,
        "meta_element_set_no": 999,
        "meta_rev_at_epoch": 87601,
        "meta_bstar": 0.0015884178,
        "meta_mean_motion_dot": 5.356e-05,
        "meta_mean_motion_ddot": 0,
        "tle_line1": "1 34145U 97051DY  25344.18064647  .00005356  00000+0  15884-2 0  9999",
        "tle_line2": "2 34145  86.2123 333.6661 0055658 101.9259 258.8189 14.42258512876012"
      },
      "geometry": {
        "type": "Point",
        "coordinates": [
          147.82312597949996,
          56.050287067040685
        ]
      }
    },
    {
      "type": "Feature",
      "properties": {
        "norad_id": 34146,
        "name": "IRIDIUM 33 DEB",
        "group": "iridium-33-debris",
        "lat": 69.1521284835883,
        "lon": 0.5636749766723647,
        "alt_km": 739.0686206562241,
        "timestamp": "2025-12-10T14:53:37.473284+00:00",
        "meta_object_name": "IRIDIUM 33 DEB",
        "meta_object_id": "1997-051DZ",
        "meta_epoch": "2025-12-10T01:35:00.265920",
        "meta_mean_motion": 14.49018235,
        "meta_eccentricity": 0.00252772,
        "meta_inclination": 86.2836,
        "meta_ra_of_asc_node": 350.9814,
        "meta_arg_of_pericenter": 231.1216,
        "meta_mean_anomaly": 187.2967,
        "meta_ephemeris_type": 0,
        "meta_classification_type": "U",
        "meta_norad_cat_id": 34146,
        "meta_element_set_no": 999,
        "meta_rev_at_epoch": 88068,
        "meta_bstar": 0.001315332,
        "meta_mean_motion_dot": 5.028e-05,
        "meta_mean_motion_ddot": 0,
        "tle_line1": "1 34146U 97051DZ  25344.06597530  .00005028  00000+0  13153-2 0  9992",
        "tle_line2": "2 34146  86.2836 350.9814 0025277 231.1216 187.2967 14.49018235880689"
      },
      "geometry": {
        "type": "Point",
        "coordinates": [
          0.5636749766723647,
          69.1521284835883
        ]
      }
    },
    {
      "type": "Feature",
      "properties": {
        "norad_id": 34159,
        "name": "IRIDIUM 33 DEB",
        "group": "iridium-33-debris",
        "lat": -44.499189131101836,
        "lon": -127.25976144236124,
        "alt_km": 764.1770836676324,
        "timestamp": "2025-12-10T14:53:37.473293+00:00",
        "meta_object_name": "IRIDIUM 33 DEB",
        "meta_object_id": "1997-051EN",
        "meta_epoch": "2025-12-10T05:30:11.322144",
        "meta_mean_motion": 14.38483743,
        "meta_eccentricity": 0.00259696,
        "meta_inclination": 86.351,
        "meta_ra_of_asc_node": 49.3117,
        "meta_arg_of_pericenter": 296.6824,
        "meta_mean_anomaly": 63.1716,
        "meta_ephemeris_type": 0,
        "meta_classification_type": "U",
        "meta_norad_cat_id": 34159,
        "meta_element_set_no": 999,
        "meta_rev_at_epoch": 87923,
        "meta_bstar": 0.00060071013,
        "meta_mean_motion_dot": 1.86e-05,
        "meta_mean_motion_ddot": 0,
        "tle_line1": "1 34159U 97051EN  25344.22929771  .00001860  00000+0  60071-3 0  9992",
        "tle_line2": "2 34159  86.3510  49.3117 0025969 296.6824  63.1716 14.38483743879238"
      },
      "geometry": {
        "type": "Point",
        "coordinates": [
          -127.25976144236124,
          -44.499189131101836
        ]
      }
    }
  ]
}